OBJECT_NAME,OBJECT_ID,EPOCH,MEAN_MOTION,ECCENTRICITY,INCLINATION,RA_OF_ASC_NODE,ARG_OF_PERICENTER,MEAN_ANOMALY,EPHEMERIS_TYPE,CLASSIFICATION_TYPE,NORAD_CAT_ID,ELEMENT_SET_NO,REV_AT_EPOCH,BSTAR,MEAN_MOTION_DOT,MEAN_MOTION_DDOT
USA 285,2018-036E,2021-02-05T20:42:35.997696,1.02115790,.0007197,2.3411,88.2359,96.8836,347.0261,0,U,43445,999,695,0,-.249E-5,0
USA 286,2018-036F,2021-02-05T23:05:47.028768,1.02121065,.0007045,2.3398,88.1449,94.2467,50.5894,0,U,43446,999,693,0,-.181E-5,0
APSTAR 6C,2018-041A,2021-02-04T08:46:06.015360,1.00268132,.0002283,0.0406,262.9827,24.3226,112.9085,0,U,43450,999,1020,0,-.321E-5,0
GAOFEN 5,2018-043A,2021-02-06T12:57:54.638208,14.57800991,.0002989,98.2211,337.5151,52.5244,307.6214,0,U,43461,999,14640,.19118E-4,.42E-6,0
BANGABANDHUSAT-1,2018-044A,2021-02-06T13:44:42.609696,1.00272384,.0002018,0.0171,119.1000,219.3912,123.6741,0,U,43463,999,1009,0,-.37E-5,0
GRACE-FO 1,2018-047A,2021-02-06T13:48:12.364704,15.24177896,.0020293,88.9818,106.0681,88.7332,271.6240,0,U,43476,999,15087,.92606E-5,.259E-5,0
GRACE-FO 2,2018-047B,2021-02-06T13:48:37.121760,15.24177656,.0020084,88.9818,106.0713,88.4542,271.9006,0,U,43477,999,15087,.93659E-5,.262E-5,0
IRIDIUM 161,2018-047C,2021-02-06T10:40:24.103488,14.43281166,.0001746,86.4534,186.2164,90.0047,270.1354,0,U,43478,999,14290,.20882E-4,.9E-6,0
IRIDIUM 152,2018-047D,2021-02-06T10:38:58.782624,14.34220710,.0002361,86.4007,186.0876,97.5548,262.5916,0,U,43479,999,14203,.22084E-4,.82E-6,0
IRIDIUM 147,2018-047E,2021-02-06T10:48:06.618240,14.34216825,.0002136,86.4008,186.0565,87.3953,272.7487,0,U,43480,999,14202,.22418E-4,.83E-6,0
IRIDIUM 110,2018-047F,2021-02-06T10:57:13.850784,14.34219260,.0001774,86.4011,186.0936,100.6677,259.4719,0,U,43481,999,14201,.21332E-4,.8E-6,0
IRIDIUM 162,2018-047G,2021-02-06T12:11:04.331328,14.43277890,.0001876,86.4527,186.1073,104.9533,255.1876,0,U,43482,999,14290,.22795E-4,.97E-6,0
GAOFEN 6,2018-048A,2021-02-06T12:09:20.057760,14.76503767,.0009683,97.9685,120.5532,12.8743,347.2709,0,U,43484,999,14465,.16006E-4,.6E-6,0
LUOJIA-1 01,2018-048B,2021-02-06T11:58:14.919456,14.76788266,.0011301,97.9711,120.9048,6.6911,353.4447,0,U,43485,999,14466,.32661E-4,.178E-5,0
SES-12,2018-049A,2021-02-06T13:52:42.686976,1.00270909,.0001918,0.0182,67.8156,223.0492,149.2056,0,U,43488,999,980,0,-.277E-5,0
FENGYUN 2H,2018-050A,2021-02-06T02:38:42.627840,1.00269571,.0002172,0.1228,241.2224,253.3148,120.9133,0,U,43491,999,988,0,-.135E-5,0
COSMOS 2527 [GLONASS-M],2018-053A,2021-02-06T08:47:38.955840,2.13102616,.0007293,64.8861,139.4570,224.0322,208.7286,0,U,43508,999,2057,0,-.25E-6,0
REMOVEDEBRIS,1998-067NT,2021-02-06T12:14:40.928352,15.69365675,.0002905,51.6312,205.0860,219.4732,140.6054,0,U,43510,999,15015,.12514E-3,.14408E-3,0
XJS A,2018-054A,2021-02-06T14:51:08.773056,15.29251275,.0008924,35.0494,4.4214,219.7037,306.9563,0,U,43518,999,14629,.94658E-4,.2718E-4,0
XJS B,2018-054B,2021-02-06T14:48:37.568736,15.29272885,.0007763,35.0492,4.2940,255.4985,271.1819,0,U,43519,999,14629,.10341E-3,.2975E-4,0
PAKTES 1A,2018-056A,2021-02-06T12:46:49.372032,14.87495647,.002827,97.9842,132.4164,78.2625,282.1745,0,U,43529,999,14021,.12002E-4,.52E-6,0
PRSS 1,2018-056B,2021-02-06T12:04:16.608864,14.76952053,.0001531,97.9764,118.0504,96.1286,264.0094,0,U,43530,999,13924,.1539E-4,.57E-6,0
BEIDOU IGSO-7,2018-057A,2021-02-06T07:26:42.463680,1.00253430,.0031798,55.0555,180.1334,212.2406,328.7247,0,U,43539,999,953,0,-.112E-5,0
TEMPEST-D,1998-067NV,2021-02-06T11:49:36.286176,15.73283680,.0005044,51.6323,204.3186,217.1983,142.8667,0,U,43547,999,14619,.29541E-3,.41284E-3,0
RADSAT-G,1998-067PB,2021-02-06T09:35:52.157472,15.88679299,.0005031,51.6350,172.2110,276.6542,83.3891,0,U,43553,999,14704,.27603E-3,.79401E-3,0
AEROCUBE 12A,2018-046C,2021-02-06T10:16:30.244512,15.30926461,.0008495,51.6411,60.5501,55.0288,305.1489,0,U,43556,999,14320,.44671E-4,.988E-5,0
AEROCUBE 12B,2018-046D,2021-02-06T08:19:04.658880,15.30461726,.0008469,51.6408,62.2325,54.4555,305.7214,0,U,43557,999,14312,.77547E-4,.1955E-4,0
LEMUR-2-VU,2018-046E,2021-02-06T13:22:52.112640,15.32693785,.0007658,51.6415,54.0662,58.4450,301.7279,0,U,43558,999,14329,.6905E-4,.184E-4,0
LEMUR-2-ALEXANDER,2018-046F,2021-02-06T10:22:41.105280,15.32895540,.0007574,51.6414,53.9994,57.9181,302.2535,0,U,43559,999,14306,.96431E-4,.2738E-4,0
LEMUR-2-YUASA,2018-046G,2021-02-06T10:56:19.424832,15.32632730,.0007722,51.6409,54.8820,70.7308,289.4509,0,U,43560,999,14327,.11117E-3,.3186E-4,0
LEMUR-2-TOMHENDERSON,2018-046H,2021-02-06T07:32:31.450560,15.32308795,.0007844,51.6416,56.1751,69.5274,290.6549,0,U,43561,999,14280,.10778E-3,.3044E-4,0
