USA 285                 
1 43445U 18036E   21036.86291664 -.00000249  00000-0  00000-0 0  9998
2 43445   2.3411  88.2359 0007197  96.8836 347.0261  1.02115790  6951
USA 286                 
1 43446U 18036F   21036.96234987 -.00000181  00000-0  00000-0 0  9990
2 43446   2.3398  88.1449 0007045  94.2467  50.5894  1.02121065  6937
APSTAR 6C               
1 43450U 18041A   21035.36534740 -.00000321  00000-0  00000-0 0  9990
2 43450   0.0406 262.9827 0002283  24.3226 112.9085  1.00268132 10200
GAOFEN 5                
1 43461U 18043A   21037.54021572  .00000042  00000-0  19118-4 0  9993
2 43461  98.2211 337.5151 0002989  52.5244 307.6214 14.57800991146400
BANGABANDHUSAT-1        
1 43463U 18044A   21037.57271539 -.00000370  00000-0  00000-0 0  9990
2 43463   0.0171 119.1000 0002018 219.3912 123.6741  1.00272384 10092
GRACE-FO 1              
1 43476U 18047A   21037.57514311  .00000259  00000-0  92606-5 0  9998
2 43476  88.9818 106.0681 0020293  88.7332 271.6240 15.24177896150870
GRACE-FO 2              
1 43477U 18047B   21037.57542965  .00000262  00000-0  93659-5 0  9998
2 43477  88.9818 106.0713 0020084  88.4542 271.9006 15.24177656150872
IRIDIUM 161             
1 43478U 18047C   21037.44472342  .00000090  00000-0  20882-4 0  9992
2 43478  86.4534 186.2164 0001746  90.0047 270.1354 14.43281166142908
IRIDIUM 152             
1 43479U 18047D   21037.44373591  .00000082  00000-0  22084-4 0  9996
2 43479  86.4007 186.0876 0002361  97.5548 262.5916 14.34220710142035
IRIDIUM 147             
1 43480U 18047E   21037.45007660  .00000083  00000-0  22418-4 0  9992
2 43480  86.4008 186.0565 0002136  87.3953 272.7487 14.34216825142027
IRIDIUM 110             
1 43481U 18047F   21037.45641031  .00000080  00000-0  21332-4 0  9990
2 43481  86.4011 186.0936 0001774 100.6677 259.4719 14.34219260142018
IRIDIUM 162             
1 43482U 18047G   21037.50768902  .00000097  00000-0  22795-4 0  9996
2 43482  86.4527 186.1073 0001876 104.9533 255.1876 14.43277890142903
GAOFEN 6                
1 43484U 18048A   21037.50648215  .00000060  00000-0  16006-4 0  9991
2 43484  97.9685 120.5532 0009683  12.8743 347.2709 14.76503767144656
LUOJIA-1 01             
1 43485U 18048B   21037.49878379  .00000178  00000-0  32661-4 0  9991
2 43485  97.9711 120.9048 0011301   6.6911 353.4447 14.76788266144669
SES-12                  
1 43488U 18049A   21037.57827184 -.00000277  00000-0  00000-0 0  9991
2 43488   0.0182  67.8156 0001918 223.0492 149.2056  1.00270909  9806
FENGYUN 2H              
1 43491U 18050A   21037.11021560 -.00000135  00000-0  00000-0 0  9994
2 43491   0.1228 241.2224 0002172 253.3148 120.9133  1.00269571  9886
COSMOS 2527 [GLONASS-M] 
1 43508U 18053A   21037.36642310 -.00000025  00000-0  00000-0 0  9993
2 43508  64.8861 139.4570 0007293 224.0322 208.7286  2.13102616 20579
REMOVEDEBRIS            
1 43510U 98067NT  21037.51019593  .00014408  00000-0  12514-3 0  9992
2 43510  51.6312 205.0860 0002905 219.4732 140.6054 15.69365675150153
XJS A                   
1 43518U 18054A   21037.61885154  .00002718  00000-0  94658-4 0  9994
2 43518  35.0494   4.4214 0008924 219.7037 306.9563 15.29251275146298
XJS B                   
1 43519U 18054B   21037.61710149  .00002975  00000-0  10341-3 0  9997
2 43519  35.0492   4.2940 0007763 255.4985 271.1819 15.29272885146297
PAKTES 1A               
1 43529U 18056A   21037.53251588  .00000052  00000-0  12002-4 0  9999
2 43529  97.9842 132.4164 0028270  78.2625 282.1745 14.87495647140216
PRSS 1                  
1 43530U 18056B   21037.50297001  .00000057  00000-0  15390-4 0  9996
2 43530  97.9764 118.0504 0001531  96.1286 264.0094 14.76952053139246
BEIDOU IGSO-7           
1 43539U 18057A   21037.31021370 -.00000112  00000-0  00000-0 0  9990
2 43539  55.0555 180.1334 0031798 212.2406 328.7247  1.00253430  9534
TEMPEST-D               
1 43547U 98067NV  21037.49278109  .00041284  00000-0  29541-3 0  9999
2 43547  51.6323 204.3186 0005044 217.1983 142.8667 15.73283680146191
RADSAT-G                
1 43553U 98067PB  21037.39990923  .00079401  00000-0  27603-3 0  9999
2 43553  51.6350 172.2110 0005031 276.6542  83.3891 15.88679299147049
AEROCUBE 12A            
1 43556U 18046C   21037.42812783  .00000988  00000-0  44671-4 0  9991
2 43556  51.6411  60.5501 0008495  55.0288 305.1489 15.30926461143201
AEROCUBE 12B            
1 43557U 18046D   21037.34658170  .00001955  00000-0  77547-4 0  9994
2 43557  51.6408  62.2325 0008469  54.4555 305.7214 15.30461726143123
LEMUR-2-VU              
1 43558U 18046E   21037.55754760  .00001840  00000-0  69050-4 0  9993
2 43558  51.6415  54.0662 0007658  58.4450 301.7279 15.32693785143291
LEMUR-2-ALEXANDER       
1 43559U 18046F   21037.43242020  .00002738  00000-0  96431-4 0  9992
2 43559  51.6414  53.9994 0007574  57.9181 302.2535 15.32895540143068
LEMUR-2-YUASA           
1 43560U 18046G   21037.45578038  .00003186  00000-0  11117-3 0  9992
2 43560  51.6409  54.8820 0007722  70.7308 289.4509 15.32632730143271
LEMUR-2-TOMHENDERSON    
1 43561U 18046H   21037.31425290  .00003044  00000-0  10778-3 0  9994
2 43561  51.6416  56.1751 0007844  69.5274 290.6549 15.32308795142808
